{
  "type": "FeatureCollection",
  "name": "han-river-main-stem",
  "attribution": "© OpenStreetMap contributors, ODbL 1.0",
  "source": "OpenStreetMap relation 5488151 (한강), main_stream members",
  "source_url": "https://www.openstreetmap.org/relation/5488151",
  "extracted_at": "2026-08-24",
  "features": [
    {
      "type": "Feature",
      "properties": {
        "name": "한강",
        "name_en": "Han River",
        "waterway": "river",
        "osm_relation": "5488151",
        "member_role": "main_stream",
        "source": "© OpenStreetMap contributors",
        "license": "ODbL 1.0"
      },
      "geometry": {
        "type": "MultiLineString",
        "coordinates": [
          [
            [
              126.4135758,
              37.8447035
            ],
            [
              126.425127,
              37.8413279
            ],
            [
              126.442173,
              37.8370237
            ],
            [
              126.4532022,
              37.827967
            ],
            [
              126.4567556,
              37.8199126
            ],
            [
              126.4592687,
              37.8181961
            ],
            [
              126.4684887,
              37.8118981
            ],
            [
              126.4855775,
              37.8060324
            ],
            [
              126.4942272,
              37.8023033
            ],
            [
              126.4965087,
              37.8013197
            ],
            [
              126.501748,
              37.7990608
            ],
            [
              126.5199827,
              37.7920214
            ],
            [
              126.5290106,
              37.7901819
            ],
            [
              126.5497334,
              37.7813108
            ],
            [
              126.5632157,
              37.7716766
            ],
            [
              126.5664447,
              37.7690749
            ],
            [
              126.566554,
              37.7689788
            ],
            [
              126.5709729,
              37.7650931
            ],
            [
              126.575145,
              37.7625993
            ],
            [
              126.5779942,
              37.761996
            ],
            [
              126.5796866,
              37.7619774
            ],
            [
              126.5816575,
              37.7619558
            ],
            [
              126.5912737,
              37.7631222
            ],
            [
              126.6034847,
              37.7652942
            ],
            [
              126.6047489,
              37.7659869
            ],
            [
              126.6051152,
              37.7661876
            ],
            [
              126.6086234,
              37.7681097
            ],
            [
              126.6134242,
              37.7741278
            ],
            [
              126.616126,
              37.7775145
            ],
            [
              126.6252412,
              37.7821376
            ],
            [
              126.6376009,
              37.7837657
            ],
            [
              126.6474714,
              37.7828601
            ],
            [
              126.6521667,
              37.7809602
            ],
            [
              126.6615915,
              37.7743784
            ],
            [
              126.6639733,
              37.7719699
            ],
            [
              126.6650033,
              37.770613
            ],
            [
              126.6686296,
              37.7662707
            ],
            [
              126.6693592,
              37.7651172
            ],
            [
              126.6727924,
              37.7608255
            ],
            [
              126.6738224,
              37.7591461
            ],
            [
              126.6742515,
              37.7580433
            ],
            [
              126.6748094,
              37.7564996
            ],
            [
              126.676526,
              37.7478809
            ],
            [
              126.6778993,
              37.7407545
            ],
            [
              126.678586,
              37.7351208
            ],
            [
              126.6786718,
              37.7324734
            ],
            [
              126.6787576,
              37.7294866
            ],
            [
              126.6777706,
              37.7255831
            ],
            [
              126.6757965,
              37.7221208
            ],
            [
              126.6734346,
              37.7172243
            ],
            [
              126.6718912,
              37.7137697
            ],
            [
              126.6700458,
              37.7093562
            ],
            [
              126.6684579,
              37.7042293
            ],
            [
              126.6677099,
              37.7014863
            ],
            [
              126.66765,
              37.7005648
            ],
            [
              126.6673422,
              37.6958253
            ],
            [
              126.666913,
              37.6928879
            ],
            [
              126.6663766,
              37.6905277
            ],
            [
              126.6663237,
              37.6897167
            ],
            [
              126.6662693,
              37.6888807
            ],
            [
              126.6664409,
              37.6871487
            ],
            [
              126.6667843,
              37.6852977
            ],
            [
              126.6678357,
              37.6829203
            ],
            [
              126.6700673,
              37.6796428
            ],
            [
              126.6711831,
              37.678403
            ],
            [
              126.6724705,
              37.6771463
            ],
            [
              126.6739297,
              37.6757707
            ],
            [
              126.6775989,
              37.6729174
            ],
            [
              126.6779381,
              37.6726799
            ],
            [
              126.6815042,
              37.6701829
            ],
            [
              126.6962671,
              37.6634057
            ],
            [
              126.6996574,
              37.6615203
            ],
            [
              126.7027902,
              37.6599405
            ],
            [
              126.7041635,
              37.65921
            ],
            [
              126.7058158,
              37.657987
            ],
            [
              126.707983,
              37.6564581
            ],
            [
              126.7095923,
              37.6554728
            ],
            [
              126.7112875,
              37.6540967
            ],
            [
              126.713283,
              37.6523809
            ],
            [
              126.7150426,
              37.6508179
            ],
            [
              126.7166519,
              37.6494928
            ],
            [
              126.7183685,
              37.6484904
            ],
            [
              126.721673,
              37.6465705
            ],
            [
              126.7260932,
              37.6443788
            ],
            [
              126.733303,
              37.6408447
            ],
            [
              126.7410278,
              37.6370385
            ],
            [
              126.7461347,
              37.6343197
            ],
            [
              126.7480316,
              37.6332869
            ],
            [
              126.7516279,
              37.6313289
            ],
            [
              126.7589235,
              37.6275223
            ],
            [
              126.7645025,
              37.625177
            ],
            [
              126.7699098,
              37.6231376
            ],
            [
              126.7771625,
              37.6202483
            ],
            [
              126.7823338,
              37.6183617
            ],
            [
              126.7854951,
              37.6170214
            ],
            [
              126.7868721,
              37.6163901
            ],
            [
              126.7887497,
              37.6155402
            ],
            [
              126.7948866,
              37.6123107
            ],
            [
              126.8035278,
              37.6054007
            ],
            [
              126.8071291,
              37.602438
            ],
            [
              126.8083409,
              37.6011195
            ],
            [
              126.810919,
              37.598792
            ],
            [
              126.8163071,
              37.5940328
            ],
            [
              126.8248714,
              37.5890935
            ],
            [
              126.8530937,
              37.5733698
            ],
            [
              126.8785265,
              37.5587787
            ],
            [
              126.8853331,
              37.5550623
            ],
            [
              126.8918307,
              37.55126
            ],
            [
              126.9090633,
              37.540611
            ],
            [
              126.9108482,
              37.5395079
            ],
            [
              126.9112301,
              37.5392775
            ],
            [
              126.9115841,
              37.5391839
            ],
            [
              126.9227958,
              37.5378227
            ],
            [
              126.9237613,
              37.5376696
            ],
            [
              126.935091,
              37.5347089
            ],
            [
              126.9363614,
              37.533944
            ],
            [
              126.9482185,
              37.5223411
            ],
            [
              126.9504547,
              37.520491
            ],
            [
              126.9534802,
              37.5183552
            ],
            [
              126.9548473,
              37.5176637
            ],
            [
              126.9606197,
              37.5156003
            ],
            [
              126.967299,
              37.5132322
            ],
            [
              126.9727706,
              37.5119386
            ],
            [
              126.9777488,
              37.511428
            ],
            [
              126.9818687,
              37.5112918
            ],
            [
              126.9872331,
              37.5119046
            ],
            [
              126.9906663,
              37.5128577
            ],
            [
              126.9990311,
              37.5170669
            ],
            [
              127.0046567,
              37.5206528
            ],
            [
              127.0120173,
              37.5267878
            ],
            [
              127.0202994,
              37.5356618
            ],
            [
              127.0215825,
              37.5366475
            ],
            [
              127.0229778,
              37.5374938
            ],
            [
              127.0251596,
              37.5380099
            ],
            [
              127.0276787,
              37.5382369
            ],
            [
              127.0299812,
              37.5379937
            ],
            [
              127.0539646,
              37.5312405
            ],
            [
              127.0660166,
              37.5248623
            ],
            [
              127.0674334,
              37.5243271
            ],
            [
              127.0796926,
              37.5231409
            ],
            [
              127.0893881,
              37.5238232
            ],
            [
              127.0902314,
              37.5241933
            ],
            [
              127.0907783,
              37.5244629
            ],
            [
              127.0955575,
              37.5268182
            ],
            [
              127.0975954,
              37.5281932
            ],
            [
              127.111516,
              37.5418041
            ],
            [
              127.1124601,
              37.542842
            ],
            [
              127.1130603,
              37.5438173
            ],
            [
              127.1163654,
              37.5504807
            ],
            [
              127.1196055,
              37.558646
            ],
            [
              127.1204209,
              37.5598538
            ],
            [
              127.1214294,
              37.5609254
            ],
            [
              127.126419,
              37.5656603
            ],
            [
              127.1303773,
              37.5677289
            ],
            [
              127.1327591,
              37.5687324
            ],
            [
              127.1354071,
              37.5696339
            ],
            [
              127.1436329,
              37.57164
            ],
            [
              127.1494573,
              37.5727808
            ],
            [
              127.1516021,
              37.5733544
            ],
            [
              127.1533773,
              37.5741688
            ],
            [
              127.153602,
              37.5742719
            ],
            [
              127.1629052,
              37.5785394
            ],
            [
              127.1782064,
              37.5847861
            ],
            [
              127.1838712,
              37.5864865
            ],
            [
              127.1911668,
              37.5870986
            ],
            [
              127.1947288,
              37.5868605
            ],
            [
              127.1985054,
              37.5859083
            ],
            [
              127.2005439,
              37.584616
            ],
            [
              127.2082734,
              37.5782593
            ],
            [
              127.2142838,
              37.5733601
            ],
            [
              127.216827,
              37.5713233
            ],
            [
              127.2168787,
              37.5712819
            ],
            [
              127.2192714,
              37.5693657
            ],
            [
              127.2213363,
              37.5677119
            ],
            [
              127.2221886,
              37.5671097
            ],
            [
              127.2235465,
              37.5657559
            ],
            [
              127.2254777,
              37.5630685
            ],
            [
              127.2285917,
              37.5570386
            ],
            [
              127.2328222,
              37.5506953
            ],
            [
              127.2342114,
              37.5488152
            ],
            [
              127.2352731,
              37.5475461
            ],
            [
              127.2367328,
              37.5465203
            ],
            [
              127.2404122,
              37.5445178
            ],
            [
              127.2431532,
              37.5432378
            ],
            [
              127.2446422,
              37.5425425
            ],
            [
              127.2505939,
              37.5404174
            ],
            [
              127.2594345,
              37.5356022
            ],
            [
              127.2646594,
              37.5325479
            ],
            [
              127.2717667,
              37.5295344
            ],
            [
              127.2771799,
              37.5273323
            ],
            [
              127.278969,
              37.5266686
            ],
            [
              127.279551,
              37.5264474
            ],
            [
              127.2807205,
              37.526022
            ],
            [
              127.2830164,
              37.5247967
            ],
            [
              127.2839498,
              37.523682
            ],
            [
              127.2846687,
              37.5222184
            ],
            [
              127.2856466,
              37.5196759
            ],
            [
              127.2872838,
              37.5152236
            ],
            [
              127.2904414,
              37.5106621
            ],
            [
              127.2928118,
              37.509862
            ],
            [
              127.2978974,
              37.5100322
            ],
            [
              127.3022532,
              37.5104408
            ],
            [
              127.3037123,
              37.5120067
            ],
            [
              127.3056221,
              37.5154448
            ],
            [
              127.3077249,
              37.5193933
            ],
            [
              127.3105144,
              37.5248733
            ]
          ]
        ]
      }
    }
  ]
}
